GLOBALSTAR M024         
1 25883U 99043A   24157.40112208 -.00000107  00000+0 -14973-2 0  9993
2 25883  51.9973 150.7756 0001511 221.1463 288.8262 11.10157111 73016
GLOBALSTAR M027         
1 25884U 99043B   24157.51133133  .00000007  00000+0  26832-2 0  9990
2 25884  52.0189 217.8402 0021348 104.2605 256.0560 11.04368757 99626
GLOBALSTAR M054         
1 25885U 99043C   24157.47324133 -.00000080  00000+0 -22481-3 0  9998
2 25885  52.0163  48.4396 0004219 257.9094 273.4651 11.39203313 76112
GLOBALSTAR M053         
1 25886U 99043D   24157.51427050 -.00000060  00000+0  25117-3 0  9992
2 25886  52.0005 334.5407 0003950 152.1409 240.4909 11.27655568 76959
GLOBALSTAR M058         
1 25907U 99049A   24157.67400978  .00000015  00000+0  13383-2 0  9999
2 25907  51.9966  34.5462 0001732 284.1121  75.9521 11.93181833107800
GLOBALSTAR M050         
1 25908U 99049B   24157.50088073 -.00000032  00000+0  63186-3 0  9997
2 25908  52.0000  70.8255 0009561   3.9321 167.2842 12.07434536102681
GLOBALSTAR M033         
1 25909U 99049C   24157.40067091 -.00000087  00000+0  39977-4 0  9996
2 25909  51.9931 328.9622 0011875 209.1281 150.8905 12.20273567489747
GLOBALSTAR M055         
1 25910U 99049D   24157.26286666 -.00000067  00000+0  23448-3 0  9996
2 25910  52.0041 358.4396 0007877  71.0877 289.0828 12.29402367121926
